[{"OBJECT_NAME":"STARLINK-5952","OBJECT_ID":"2023-083AZ","EPOCH":"2026-03-09T22:00:01.999584","MEAN_MOTION":15.07901533,"ECCENTRICITY":0.00011359,"INCLINATION":43.0007,"RA_OF_ASC_NODE":67.354,"ARG_OF_PERICENTER":303.977,"MEAN_ANOMALY":166.0344,"EPHEMERIS_TYPE":0,"CLASSIFICATION_TYPE":"U","NORAD_CAT_ID":56923,"ELEMENT_SET_NO":999,"REV_AT_EPOCH":578,"BSTAR":0.0043978812,"MEAN_MOTION_DOT":0.0006909,"MEAN_MOTION_DDOT":0},{"OBJECT_NAME":"IRIDIUM 33 DEB","OBJECT_ID":"1997-051UN","EPOCH":"2026-03-08T06:46:46.443072","MEAN_MOTION":15.09674475,"ECCENTRICITY":0.00152582,"INCLINATION":86.3393,"RA_OF_ASC_NODE":271.884,"ARG_OF_PERICENTER":69.7211,"MEAN_ANOMALY":290.5665,"EPHEMERIS_TYPE":0,"CLASSIFICATION_TYPE":"U","NORAD_CAT_ID":35929,"ELEMENT_SET_NO":999,"REV_AT_EPOCH":89067,"BSTAR":0.003863549,"MEAN_MOTION_DOT":0.00062834,"MEAN_MOTION_DDOT":0}]
